OBJECT_NAME,OBJECT_ID,EPOCH,MEAN_MOTION,ECCENTRICITY,INCLINATION,RA_OF_ASC_NODE,ARG_OF_PERICENTER,MEAN_ANOMALY,EPHEMERIS_TYPE,CLASSIFICATION_TYPE,NORAD_CAT_ID,ELEMENT_SET_NO,REV_AT_EPOCH,BSTAR,MEAN_MOTION_DOT,MEAN_MOTION_DDOT
CUTE-1 (CO-55),2003-031E,2026-07-06T00:05:51.542592,14.24347598,.00105732,98.6737,195.3263,126.4787,233.7367,0,U,27844,999,19435,.15365181E-3,.312E-5,0
CUBESAT XI-IV (CO-57),2003-031J,2026-07-06T00:02:50.914752,14.23631104,.00101586,98.6770,195.0217,143.6881,216.4988,0,U,27848,999,19405,.13358001E-3,.261E-5,0
CUBESAT XI-V,2005-043F,2026-07-05T09:47:41.053920,14.72685124,.00148413,98.3005,342.4147,144.0208,216.2000,0,U,28895,999,10443,.30607604E-3,.1902E-4,0
CUTE-1.7+APD II (CO-65),2008-021C,2026-07-06T04:57:46.878912,15.09646239,.00076754,97.8291,169.0238,336.2233,23.8639,0,U,32785,999,98806,.33294216E-3,.5294E-4,0
CANX-2,2008-021H,2026-07-05T21:30:17.802432,15.05759266,.00097818,97.8645,167.0391,349.6431,10.4592,0,U,32790,999,98762,.37398051E-3,.5357E-4,0
SEEDS II (CO-66),2008-021J,2026-07-05T22:24:17.004096,15.33438774,.00019257,97.7526,185.7350,178.5617,181.5631,0,U,32791,999,99016,.63447274E-3,.20454E-3,0
SWISSCUBE,2009-051B,2026-07-06T04:31:24.909600,14.62519394,.00073384,98.4019,95.4068,143.7064,216.4636,0,U,35932,999,89193,.22538247E-3,.1094E-4,0
BEESAT-1,2009-051C,2026-07-06T04:59:17.126304,14.61752368,.00055614,98.3947,95.0219,154.2059,205.9420,0,U,35933,999,89196,.19294386E-3,.913E-5,0
ITUPSAT1,2009-051E,2026-07-06T05:10:10.350048,14.60469979,.00074326,98.4029,94.2012,169.5257,190.6099,0,U,35935,999,89151,.18182091E-3,.833E-5,0
TISAT 1,2010-035E,2026-07-05T19:07:17.325984,15.32473355,.0004135,98.0710,135.0077,137.6093,222.5467,0,U,36799,999,87055,.85640011E-3,.26838E-3,0
AEROCUBE 4.5A,2012-048K,2026-06-29T19:35:03.540480,16.17962819,.00188678,64.6148,340.0554,267.4936,92.4076,0,U,38767,999,37468,.11805476E-2,.2026816E-1,.7424434E-5
STRAND-1,2013-009E,2026-07-05T10:27:58.912992,14.37175147,.0008827,98.3930,6.2219,168.5564,191.5825,0,U,39090,999,69968,.1469E-3,.394E-5,0
BRITE-AUSTRIA,2013-009F,2026-07-05T22:39:59.738688,14.36549906,.00101887,98.4004,5.9166,177.3840,182.7402,0,U,39091,999,69974,.82602154E-4,.2E-5,0
NEE-01 PEGASO,2013-018B,2026-07-05T05:14:47.136768,14.93758890,.0013941,98.1251,330.9673,104.1848,256.0920,0,U,39151,999,71339,.43662E-3,.4574E-4,0
POPACS 2,2013-055E,2026-07-04T19:43:26.982048,14.91720341,.0415832,80.9915,124.0034,137.1605,226.2823,0,U,39269,999,66584,.44970881E-3,.27129E-3,-.752503E-6
POPACS 3,2013-055F,2026-07-05T19:22:08.983488,14.56491356,.05499574,80.9990,208.9935,13.3120,348.1928,0,U,39270,999,64126,.28863157E-3,.12195E-3,0
ZACUBE-1 (TSHEPISOSAT),2013-066B,2026-07-05T20:53:12.400224,15.01298892,.00433357,97.8029,149.3009,185.1582,174.9202,0,U,39417,999,68353,.30308958E-3,.3914E-4,0
WNISAT-1,2013-066H,2026-07-05T22:42:06.765696,14.58105275,.01632242,97.7225,334.7728,172.3324,188.0430,0,U,39423,999,66946,.2719278E-3,.1456E-4,0
TRITON-1,2013-066M,2026-07-06T06:31:10.070976,14.81773600,.00898613,97.8225,96.6432,171.1126,189.1705,0,U,39427,999,67691,.12824285E-3,.1028E-4,0
GOMX-1,2013-066Q,2026-07-06T07:40:17.704704,14.69528945,.01290643,97.6472,26.5744,16.6920,343.8475,0,U,39430,999,67272,.41579994E-3,.2752E-4,0
CUBEBUG-2 (LO-74),2013-066AA,2026-07-06T06:53:30.519456,14.93930627,.00562854,97.8914,136.3484,325.7872,33.9725,0,U,39440,999,67984,.39945241E-3,.4323E-4,0
NEE-02 KRYSAOR,2013-066AB,2026-07-06T06:09:39.477888,14.86713200,.00662493,97.8890,126.3363,8.6556,351.5786,0,U,39441,999,67903,.31544349E-3,.286E-4,0
FUNCUBE-1 (AO-73),2013-066AE,2026-07-05T21:09:12.153888,15.09732686,.00374383,97.8282,158.7205,138.2012,222.2087,0,U,39444,999,68248,.53111399E-3,.8644E-4,0
UWE-3,2013-066AG,2026-07-05T20:43:05.753856,14.97161754,.00474155,97.8703,143.0659,257.1230,102.4692,0,U,39446,999,68037,.32714785E-3,.3804E-4,0
BRITE-CA1 (TORONTO),2014-033L,2026-07-06T06:23:00.902688,14.72710728,.00778074,97.9762,315.8448,215.0117,144.5962,0,U,40020,999,64502,.17255193E-3,.11E-4,0
DUCHIFAT-1,2014-033M,2026-07-06T02:53:02.621472,15.69113634,.00009894,98.0430,249.0015,273.0857,87.0289,0,U,40021,999,65871,.12107124E-2,.14213E-2,0
NANOSATC-BR1,2014-033Q,2026-07-06T02:01:54.192000,15.32115845,.00052746,98.0711,221.1547,118.1118,242.0656,0,U,40024,999,65687,.64071804E-3,.19818E-3,0
QB50P1,2014-033R,2026-07-05T23:56:27.527712,15.18568137,.0009703,98.0967,199.4657,152.3577,207.8173,0,U,40025,999,65588,.44554879E-3,.9146E-4,0
QB50P2,2014-033Y,2026-07-05T23:40:21.801216,15.15424922,.00093407,98.0762,185.0401,109.2682,250.9560,0,U,40032,999,65551,.43777701E-3,.821E-4,0
PERSEUS-M2,2014-033AD,2026-07-06T06:22:08.253120,14.95569705,.00106629,97.9967,138.1957,232.9589,127.0657,0,U,40037,999,65363,.23623344E-3,.2562E-4,0
